{
  "norad_id": 65679,
  "name": "STARLINK-35205",
  "history": [
    {
      "epoch": "2026-03-28T20:21:30.066624Z",
      "apogee_km": 476.0141331733248,
      "perigee_km": 474.4257991628456,
      "latitude_deg": 1.5758093236078324e-06,
      "longitude_deg": 125.27259986708223,
      "height_km": 476.18859689212803,
      "semi_major_axis_km": 6853.356966168085,
      "eccentricity": 0.00011588,
      "inclination_deg": 53.1584,
      "raan_deg": 256.9107,
      "arg_perigee_deg": 95.0982,
      "mean_anomaly_deg": 265.0151,
      "mean_motion_rev_day": 15.3019836
    }
  ]
}