{"fetched_at":"2026-03-29T16:36:15Z","count":15609,"tles":[{"name":"STARLINK-35205","line1":"1 65679U 25212D   26087.84826466  .00027627  00000+0  94148-3 0  9994","line2":"2 65679  53.1584 256.9107 0001158  95.0982 265.0151 15.30198360 30121","category":"Starlink"}]}